SAUDISAT 1C (SO-50)     
1 27607U 02058C   26165.32313440  .00000923  00000+0  12619-3 0  9992
2 27607  64.5509 137.8468 0075334 263.0043  96.2490 14.83041320264031
SAUDISAT 2              
1 28371U 04025F   26165.48745741  .00000228  00000+0  61943-4 0  9990
2 28371  98.5508 165.3996 0023692 306.9351  52.9676 14.56682552165355
SAUDISAT 3              
1 31118U 07012B   26165.40259443  .00000220  00000+0  43714-4 0  9991
2 31118  98.1455 115.8013 0013492 233.3674 126.6292 14.71424194 27334
PISAT                   
1 41784U 16059B   26165.48749855  .00000761  00000+0  13720-3 0  9994
2 41784  97.8179 166.0563 0028161 211.6236 148.3279 14.68979339519348
FLYING LAPTOP           
1 42831U 17042G   26165.51920319  .00003361  00000+0  26585-3 0  9993
2 42831  97.4668 321.1545 0019518 130.4890 229.8040 15.01130916486055
SALSAT                  
1 46495U 20068K   26165.46369228  .00007647  00000+0  26787-3 0  9990
2 46495  97.8844 168.3625 0008244 319.7381  40.3247 15.29766434314949
