OBJECT_NAME,OBJECT_ID,EPOCH,MEAN_MOTION,ECCENTRICITY,INCLINATION,RA_OF_ASC_NODE,ARG_OF_PERICENTER,MEAN_ANOMALY,EPHEMERIS_TYPE,CLASSIFICATION_TYPE,NORAD_CAT_ID,ELEMENT_SET_NO,REV_AT_EPOCH,BSTAR,MEAN_MOTION_DOT,MEAN_MOTION_DDOT
SAUDISAT 1C (SO-50),2002-058C,2026-06-14T07:45:18.812160,14.83041320,.0075334,64.5509,137.8468,263.0043,96.2490,0,U,27607,999,26403,.12619E-3,.923E-5,0
SAUDISAT 2,2004-025F,2026-06-14T11:41:56.320224,14.56682552,.0023692,98.5508,165.3996,306.9351,52.9676,0,U,28371,999,16535,.61943E-4,.228E-5,0
SAUDISAT 3,2007-012B,2026-06-14T09:39:44.158752,14.71424194,.0013492,98.1455,115.8013,233.3674,126.6292,0,U,31118,999,2733,.43714E-4,.22E-5,0
PISAT,2016-059B,2026-06-14T11:41:59.874720,14.68979339,.0028161,97.8179,166.0563,211.6236,148.3279,0,U,41784,999,51934,.1372E-3,.761E-5,0
FLYING LAPTOP,2017-042G,2026-06-14T12:27:39.155616,15.01130916,.0019518,97.4668,321.1545,130.4890,229.8040,0,U,42831,999,48605,.26585E-3,.3361E-4,0
SALSAT,2020-068K,2026-06-14T11:07:43.012992,15.29766434,.0008244,97.8844,168.3625,319.7381,40.3247,0,U,46495,999,31494,.26787E-3,.7647E-4,0
